KINEIS-1B               
1 60079U 24114A   26193.52935970  .00000418  00000+0  61303-4 0  9994
2 60079  97.9828 217.5938 0003148  44.3134 315.8330 14.80664685111157
KINEIS-1C               
1 60081U 24114C   26193.49541753  .00000397  00000+0  58593-4 0  9998
2 60081  97.9841 217.4147 0002561  98.3783 261.7720 14.80666615111127
KINEIS-1D               
1 60082U 24114D   26193.52777160  .00000326  00000+0  54240-4 0  9993
2 60082  97.9878 213.3867 0002929 102.4661 257.6877 14.76360565110869
KINEIS-1E               
1 60083U 24114E   26193.51328166  .00000508  00000+0  72765-4 0  9995
2 60083  97.8943 216.5315 0004048 115.2207 244.9425 14.80691617111136
KINEIS-1A               
1 60084U 24114F   26193.54670240  .00000429  00000+0  62545-4 0  9999
2 60084  97.8917 216.6591 0005500  68.9891 291.1909 14.80679980111143
KINEIS-3C               
1 61220U 24172A   26189.82018517  .00001184  00000+0  19490-3 0  9994
2 61220  98.0431 279.4900 0002749  92.2536 267.8986 14.72355818 96250
KINEIS-3D               
1 61221U 24172B   26189.81344248  .00001106  00000+0  18256-3 0  9990
2 61221  98.0427 279.4937 0002612  92.0165 268.1342 14.72360142 96538
KINEIS-3E               
1 61222U 24172C   26193.19448386  .00000945  00000+0  15732-3 0  9991
2 61222  98.0428 282.8204 0001814  90.4732 269.6683 14.72333973 97032
KINEIS-3A               
1 61223U 24172D   26193.24596159  .00000952  00000+0  15855-3 0  9994
2 61223  98.0425 282.9695 0002366  48.0075 312.1334 14.72303997 96463
KINEIS-3B               
1 61224U 24172E   26193.22856022  .00000949  00000+0  15799-3 0  9994
2 61224  98.0418 282.9748 0001834  35.1345 324.9983 14.72290154 97036
KINEIS-5C               
1 62081U 24219A   26193.47764466  .00000345  00000+0  62176-4 0  9997
2 62081  97.9063 351.6305 0003935 181.4287 178.6910 14.72312653 87479
KINEIS-5D               
1 62082U 24219B   26193.50448703  .00000472  00000+0  82051-4 0  9990
2 62082  97.9176 351.7200 0005062 175.5378 184.5875 14.72490697 87480
KINEIS-5E               
1 62083U 24219C   26193.52195850  .00000298  00000+0  54773-4 0  9991
2 62083  97.9021 351.7693 0006556 172.5868 187.5438 14.72297310 87492
KINEIS-5A               
1 62084U 24219D   26193.56804512  .00001361  00000+0  22325-3 0  9997
2 62084  97.8960 352.0959 0003526 209.4621 150.6388 14.72246326 87502
KINEIS-5B               
1 62085U 24219E   26193.49667760  .00000570  00000+0  85386-4 0  9990
2 62085  98.0087 357.1873 0002308 150.7845 209.3495 14.78382221 87748
KINEIS-2C               
1 62929U 25028B   26193.10846069  .00000832  00000+0  13612-3 0  9998
2 62929  98.1231 247.5287 0004005 167.6457 192.4850 14.73423798 76284
