{"fetched_at":"2026-07-12T17:32:52.356Z","source":"https://celestrak.org/NORAD/elements/gp.php?NAME=KINEIS&FORMAT=JSON","constellation":"kineis","records":[{"OBJECT_NAME":"KINEIS-1B","OBJECT_ID":"2024-114A","EPOCH":"2026-07-12T12:42:16.678080","CLASSIFICATION_TYPE":"U","MEAN_MOTION":14.80664685,"ECCENTRICITY":0.0003148,"INCLINATION":97.9828,"RA_OF_ASC_NODE":217.5938,"ARG_OF_PERICENTER":44.3134,"MEAN_ANOMALY":315.833,"EPHEMERIS_TYPE":0,"NORAD_CAT_ID":60079,"ELEMENT_SET_NO":999,"REV_AT_EPOCH":11115,"BSTAR":0.000061303,"MEAN_MOTION_DOT":0.00000418,"MEAN_MOTION_DDOT":0},{"OBJECT_NAME":"KINEIS-1C","OBJECT_ID":"2024-114C","EPOCH":"2026-07-12T11:53:24.074592","CLASSIFICATION_TYPE":"U","MEAN_MOTION":14.80666615,"ECCENTRICITY":0.0002561,"INCLINATION":97.9841,"RA_OF_ASC_NODE":217.4147,"ARG_OF_PERICENTER":98.3783,"MEAN_ANOMALY":261.772,"EPHEMERIS_TYPE":0,"NORAD_CAT_ID":60081,"ELEMENT_SET_NO":999,"REV_AT_EPOCH":11112,"BSTAR":0.000058593,"MEAN_MOTION_DOT":0.00000397,"MEAN_MOTION_DDOT":0},{"OBJECT_NAME":"KINEIS-1D","OBJECT_ID":"2024-114D","EPOCH":"2026-07-12T12:39:59.466240","CLASSIFICATION_TYPE":"U","MEAN_MOTION":14.76360565,"ECCENTRICITY":0.0002929,"INCLINATION":97.9878,"RA_OF_ASC_NODE":213.3867,"ARG_OF_PERICENTER":102.4661,"MEAN_ANOMALY":257.6877,"EPHEMERIS_TYPE":0,"NORAD_CAT_ID":60082,"ELEMENT_SET_NO":999,"REV_AT_EPOCH":11086,"BSTAR":0.00005424,"MEAN_MOTION_DOT":0.00000326,"MEAN_MOTION_DDOT":0},{"OBJECT_NAME":"KINEIS-1E","OBJECT_ID":"2024-114E","EPOCH":"2026-07-12T12:19:07.535424","CLASSIFICATION_TYPE":"U","MEAN_MOTION":14.80691617,"ECCENTRICITY":0.0004048,"INCLINATION":97.8943,"RA_OF_ASC_NODE":216.5315,"ARG_OF_PERICENTER":115.2207,"MEAN_ANOMALY":244.9425,"EPHEMERIS_TYPE":0,"NORAD_CAT_ID":60083,"ELEMENT_SET_NO":999,"REV_AT_EPOCH":11113,"BSTAR":0.000072765,"MEAN_MOTION_DOT":0.00000508,"MEAN_MOTION_DDOT":0},{"OBJECT_NAME":"KINEIS-1A","OBJECT_ID":"2024-114F","EPOCH":"2026-07-12T13:07:15.087360","CLASSIFICATION_TYPE":"U","MEAN_MOTION":14.8067998,"ECCENTRICITY":0.00055,"INCLINATION":97.8917,"RA_OF_ASC_NODE":216.6591,"ARG_OF_PERICENTER":68.9891,"MEAN_ANOMALY":291.1909,"EPHEMERIS_TYPE":0,"NORAD_CAT_ID":60084,"ELEMENT_SET_NO":999,"REV_AT_EPOCH":11114,"BSTAR":0.000062545,"MEAN_MOTION_DOT":0.00000429,"MEAN_MOTION_DDOT":0},{"OBJECT_NAME":"KINEIS-3C","OBJECT_ID":"2024-172A","EPOCH":"2026-07-08T19:41:03.998688","CLASSIFICATION_TYPE":"U","MEAN_MOTION":14.72355818,"ECCENTRICITY":0.00027496,"INCLINATION":98.0431,"RA_OF_ASC_NODE":279.49,"ARG_OF_PERICENTER":92.2536,"MEAN_ANOMALY":267.8986,"EPHEMERIS_TYPE":0,"NORAD_CAT_ID":61220,"ELEMENT_SET_NO":999,"REV_AT_EPOCH":9625,"BSTAR":0.00019489517,"MEAN_MOTION_DOT":0.00001184,"MEAN_MOTION_DDOT":0},{"OBJECT_NAME":"KINEIS-3D","OBJECT_ID":"2024-172B","EPOCH":"2026-07-08T19:31:21.430272","CLASSIFICATION_TYPE":"U","MEAN_MOTION":14.72360142,"ECCENTRICITY":0.00026129,"INCLINATION":98.0427,"RA_OF_ASC_NODE":279.4937,"ARG_OF_PERICENTER":92.0165,"MEAN_ANOMALY":268.1342,"EPHEMERIS_TYPE":0,"NORAD_CAT_ID":61221,"ELEMENT_SET_NO":999,"REV_AT_EPOCH":9653,"BSTAR":0.0001825622,"MEAN_MOTION_DOT":0.00001106,"MEAN_MOTION_DDOT":0},{"OBJECT_NAME":"KINEIS-3E","OBJECT_ID":"2024-172C","EPOCH":"2026-07-12T04:40:03.405504","CLASSIFICATION_TYPE":"U","MEAN_MOTION":14.72333973,"ECCENTRICITY":0.0001814,"INCLINATION":98.0428,"RA_OF_ASC_NODE":282.8204,"ARG_OF_PERICENTER":90.4732,"MEAN_ANOMALY":269.6683,"EPHEMERIS_TYPE":0,"NORAD_CAT_ID":61222,"ELEMENT_SET_NO":999,"REV_AT_EPOCH":9703,"BSTAR":0.00015732052,"MEAN_MOTION_DOT":0.00000945,"MEAN_MOTION_DDOT":0},{"OBJECT_NAME":"KINEIS-3A","OBJECT_ID":"2024-172D","EPOCH":"2026-07-12T05:54:11.081376","CLASSIFICATION_TYPE":"U","MEAN_MOTION":14.72303997,"ECCENTRICITY":0.0002366,"INCLINATION":98.0425,"RA_OF_ASC_NODE":282.9695,"ARG_OF_PERICENTER":48.0075,"MEAN_ANOMALY":312.1334,"EPHEMERIS_TYPE":0,"NORAD_CAT_ID":61223,"ELEMENT_SET_NO":999,"REV_AT_EPOCH":9646,"BSTAR":0.00015855,"MEAN_MOTION_DOT":0.00000952,"MEAN_MOTION_DDOT":0},{"OBJECT_NAME":"KINEIS-3B","OBJECT_ID":"2024-172E","EPOCH":"2026-07-12T05:29:07.603008","CLASSIFICATION_TYPE":"U","MEAN_MOTION":14.72290154,"ECCENTRICITY":0.00018347,"INCLINATION":98.0418,"RA_OF_ASC_NODE":282.9748,"ARG_OF_PERICENTER":35.1345,"MEAN_ANOMALY":324.9983,"EPHEMERIS_TYPE":0,"NORAD_CAT_ID":61224,"ELEMENT_SET_NO":999,"REV_AT_EPOCH":9703,"BSTAR":0.00015798789,"MEAN_MOTION_DOT":0.00000949,"MEAN_MOTION_DDOT":0},{"OBJECT_NAME":"KINEIS-5C","OBJECT_ID":"2024-219A","EPOCH":"2026-07-12T11:27:48.498624","CLASSIFICATION_TYPE":"U","MEAN_MOTION":14.72312653,"ECCENTRICITY":0.0003935,"INCLINATION":97.9063,"RA_OF_ASC_NODE":351.6305,"ARG_OF_PERICENTER":181.4287,"MEAN_ANOMALY":178.691,"EPHEMERIS_TYPE":0,"NORAD_CAT_ID":62081,"ELEMENT_SET_NO":999,"REV_AT_EPOCH":8747,"BSTAR":0.000062176,"MEAN_MOTION_DOT":0.00000345,"MEAN_MOTION_DDOT":0},{"OBJECT_NAME":"KINEIS-5D","OBJECT_ID":"2024-219B","EPOCH":"2026-07-12T12:06:27.679392","CLASSIFICATION_TYPE":"U","MEAN_MOTION":14.72490697,"ECCENTRICITY":0.0005062,"INCLINATION":97.9176,"RA_OF_ASC_NODE":351.72,"ARG_OF_PERICENTER":175.5378,"MEAN_ANOMALY":184.5875,"EPHEMERIS_TYPE":0,"NORAD_CAT_ID":62082,"ELEMENT_SET_NO":999,"REV_AT_EPOCH":8748,"BSTAR":0.000082051,"MEAN_MOTION_DOT":0.00000472,"MEAN_MOTION_DDOT":0},{"OBJECT_NAME":"KINEIS-5E","OBJECT_ID":"2024-219C","EPOCH":"2026-07-12T12:31:37.214400","CLASSIFICATION_TYPE":"U","MEAN_MOTION":14.7229731,"ECCENTRICITY":0.0006556,"INCLINATION":97.9021,"RA_OF_ASC_NODE":351.7693,"ARG_OF_PERICENTER":172.5868,"MEAN_ANOMALY":187.5438,"EPHEMERIS_TYPE":0,"NORAD_CAT_ID":62083,"ELEMENT_SET_NO":999,"REV_AT_EPOCH":8749,"BSTAR":0.000054773,"MEAN_MOTION_DOT":0.00000298,"MEAN_MOTION_DDOT":0},{"OBJECT_NAME":"KINEIS-5A","OBJECT_ID":"2024-219D","EPOCH":"2026-07-12T13:37:59.098368","CLASSIFICATION_TYPE":"U","MEAN_MOTION":14.72246326,"ECCENTRICITY":0.0003526,"INCLINATION":97.896,"RA_OF_ASC_NODE":352.0959,"ARG_OF_PERICENTER":209.4621,"MEAN_ANOMALY":150.6388,"EPHEMERIS_TYPE":0,"NORAD_CAT_ID":62084,"ELEMENT_SET_NO":999,"REV_AT_EPOCH":8750,"BSTAR":0.00022325,"MEAN_MOTION_DOT":0.00001361,"MEAN_MOTION_DDOT":0},{"OBJECT_NAME":"KINEIS-5B","OBJECT_ID":"2024-219E","EPOCH":"2026-07-12T11:55:12.944640","CLASSIFICATION_TYPE":"U","MEAN_MOTION":14.78382221,"ECCENTRICITY":0.0002308,"INCLINATION":98.0087,"RA_OF_ASC_NODE":357.1873,"ARG_OF_PERICENTER":150.7845,"MEAN_ANOMALY":209.3495,"EPHEMERIS_TYPE":0,"NORAD_CAT_ID":62085,"ELEMENT_SET_NO":999,"REV_AT_EPOCH":8774,"BSTAR":0.000085386,"MEAN_MOTION_DOT":0.0000057,"MEAN_MOTION_DDOT":0},{"OBJECT_NAME":"KINEIS-2C","OBJECT_ID":"2025-028B","EPOCH":"2026-07-12T02:36:11.003616","CLASSIFICATION_TYPE":"U","MEAN_MOTION":14.73423798,"ECCENTRICITY":0.00040057,"INCLINATION":98.1231,"RA_OF_ASC_NODE":247.5287,"ARG_OF_PERICENTER":167.6457,"MEAN_ANOMALY":192.485,"EPHEMERIS_TYPE":0,"NORAD_CAT_ID":62929,"ELEMENT_SET_NO":999,"REV_AT_EPOCH":7628,"BSTAR":0.00013612019,"MEAN_MOTION_DOT":0.00000832,"MEAN_MOTION_DDOT":0}]}
